{
  "type": "FeatureCollection",
  "features": [
    {
      "type": "Feature",
      "properties": {
        "norad_id": 66548,
        "name": "CZ-2C R/B",
        "group": "last-30-days",
        "lat": 52.036938481058655,
        "lon": 85.11225056514111,
        "alt_km": 444.76303822893897,
        "timestamp": "2025-12-07T18:50:15.514437+00:00",
        "meta_object_name": "CZ-2C R/B",
        "meta_object_id": "2025-266D",
        "meta_epoch": "2025-12-07T07:28:12.483840",
        "meta_mean_motion": 15.3000988,
        "meta_eccentricity": 0.00842761,
        "meta_inclination": 52.0567,
        "meta_ra_of_asc_node": 357.1384,
        "meta_arg_of_pericenter": 154.5442,
        "meta_mean_anomaly": 205.9732,
        "meta_ephemeris_type": 0,
        "meta_classification_type": "U",
        "meta_norad_cat_id": 66548,
        "meta_element_set_no": 999,
        "meta_rev_at_epoch": 278,
        "meta_bstar": 0.00053002711,
        "meta_mean_motion_dot": 0.00017051,
        "meta_mean_motion_ddot": 0,
        "tle_line1": "1 66548U 25266D   25341.31125560  .00017051  00000+0  53003-3 0  9995",
        "tle_line2": "2 66548  52.0567 357.1384 0084276 154.5442 205.9732 15.30009880  2788"
      },
      "geometry": {
        "type": "Point",
        "coordinates": [
          85.11225056514111,
          52.036938481058655
        ]
      }
    },
    {
      "type": "Feature",
      "properties": {
        "norad_id": 66549,
        "name": "SHIJIAN-28",
        "group": "last-30-days",
        "lat": 2.0351359535218134,
        "lon": -79.51008903257701,
        "alt_km": 35618.27020676839,
        "timestamp": "2025-12-07T18:50:15.514450+00:00",
        "meta_object_name": "SHIJIAN-28",
        "meta_object_id": "2025-277A",
        "meta_epoch": "2025-11-30T18:06:43.124256",
        "meta_mean_motion": 2.28019775,
        "meta_eccentricity": 0.7300519,
        "meta_inclination": 14.4344,
        "meta_ra_of_asc_node": 275.4056,
        "meta_arg_of_pericenter": 179.5026,
        "meta_mean_anomaly": 182.358,
        "meta_ephemeris_type": 0,
        "meta_classification_type": "U",
        "meta_norad_cat_id": 66549,
        "meta_element_set_no": 999,
        "meta_rev_at_epoch": 4,
        "meta_bstar": 0.00062085,
        "meta_mean_motion_dot": 6.315e-05,
        "meta_mean_motion_ddot": 0,
        "tle_line1": "1 66549U 25277A   25334.75466579  .00006315  00000+0  62085-3 0  9997",
        "tle_line2": "2 66549  14.4344 275.4056 7300519 179.5026 182.3580  2.28019775    48"
      },
      "geometry": {
        "type": "Point",
        "coordinates": [
          -79.51008903257701,
          2.0351359535218134
        ]
      }
    },
    {
      "type": "Feature",
      "properties": {
        "norad_id": 66550,
        "name": "CZ-7A R/B",
        "group": "last-30-days",
        "lat": 6.862765499044364,
        "lon": -59.75886997288872,
        "alt_km": 25516.51721747895,
        "timestamp": "2025-12-07T18:50:15.514465+00:00",
        "meta_object_name": "CZ-7A R/B",
        "meta_object_id": "2025-277B",
        "meta_epoch": "2025-12-06T11:25:58.783584",
        "meta_mean_motion": 2.49148263,
        "meta_eccentricity": 0.7169465,
        "meta_inclination": 14.4071,
        "meta_ra_of_asc_node": 272.9582,
        "meta_arg_of_pericenter": 183.2116,
        "meta_mean_anomaly": 166.6906,
        "meta_ephemeris_type": 0,
        "meta_classification_type": "U",
        "meta_norad_cat_id": 66550,
        "meta_element_set_no": 999,
        "meta_rev_at_epoch": 18,
        "meta_bstar": 0.0029638743,
        "meta_mean_motion_dot": 0.01473319,
        "meta_mean_motion_ddot": 1.649722e-06,
        "tle_line1": "1 66550U 25277B   25340.47637481  .01473319  16497-5  29639-2 0  9990",
        "tle_line2": "2 66550  14.4071 272.9582 7169465 183.2116 166.6906  2.49148263   188"
      },
      "geometry": {
        "type": "Point",
        "coordinates": [
          -59.75886997288872,
          6.862765499044364
        ]
      }
    },
    {
      "type": "Feature",
      "properties": {
        "norad_id": 66551,
        "name": "UNKNOWN",
        "group": "last-30-days",
        "lat": 22.614678929994295,
        "lon": -130.52998263027715,
        "alt_km": 340.4425062612863,
        "timestamp": "2025-12-07T18:50:15.514476+00:00",
        "meta_object_name": "UNKNOWN",
        "meta_object_id": "2025-271AE",
        "meta_epoch": "2025-12-02T16:00:03.000096",
        "meta_mean_motion": 15.87051116,
        "meta_eccentricity": 7.17e-05,
        "meta_inclination": 53.1571,
        "meta_ra_of_asc_node": 236.7807,
        "meta_arg_of_pericenter": 110.7411,
        "meta_mean_anomaly": 313.9012,
        "meta_ephemeris_type": 0,
        "meta_classification_type": "U",
        "meta_norad_cat_id": 66551,
        "meta_element_set_no": 999,
        "meta_rev_at_epoch": 262,
        "meta_bstar": -0.0074303,
        "meta_mean_motion_dot": -0.01709685,
        "meta_mean_motion_ddot": 0,
        "tle_line1": "1 66551U 25271AE  25336.66670139 -.01709685  00000+0 -74303-2 0  9993",
        "tle_line2": "2 66551  53.1571 236.7807 0000717 110.7411 313.9012 15.87051116  2624"
      },
      "geometry": {
        "type": "Point",
        "coordinates": [
          -130.52998263027715,
          22.614678929994295
        ]
      }
    },
    {
      "type": "Feature",
      "properties": {
        "norad_id": 66554,
        "name": "GLOBAL-33",
        "group": "last-30-days",
        "lat": 38.149422913668474,
        "lon": 146.33095818961309,
        "alt_km": 463.10010475731633,
        "timestamp": "2025-12-07T18:50:15.514490+00:00",
        "meta_object_name": "GLOBAL-33",
        "meta_object_id": "2025-267A",
        "meta_epoch": "2025-12-07T07:35:19.627296",
        "meta_mean_motion": 15.31453171,
        "meta_eccentricity": 0.00049125,
        "meta_inclination": 42.0198,
        "meta_ra_of_asc_node": 88.3,
        "meta_arg_of_pericenter": 13.813,
        "meta_mean_anomaly": 346.2841,
        "meta_ephemeris_type": 0,
        "meta_classification_type": "U",
        "meta_norad_cat_id": 66554,
        "meta_element_set_no": 999,
        "meta_rev_at_epoch": 257,
        "meta_bstar": 0.00065572959,
        "meta_mean_motion_dot": 0.00020158,
        "meta_mean_motion_ddot": 0,
        "tle_line1": "1 66554U 25267A   25341.31619939  .00020158  00000+0  65573-3 0  9998",
        "tle_line2": "2 66554  42.0198  88.3000 0004912  13.8130 346.2841 15.31453171  2576"
      },
      "geometry": {
        "type": "Point",
        "coordinates": [
          146.33095818961309,
          38.149422913668474
        ]
      }
    },
    {
      "type": "Feature",
      "properties": {
        "norad_id": 66555,
        "name": "ELECTRON KICK STAGE R/B",
        "group": "last-30-days",
        "lat": 37.790867176990716,
        "lon": -153.97630550606235,
        "alt_km": 462.9912001238863,
        "timestamp": "2025-12-07T18:50:15.514501+00:00",
        "meta_object_name": "ELECTRON KICK STAGE R/B",
        "meta_object_id": "2025-267B",
        "meta_epoch": "2025-12-06T14:11:19.744800",
        "meta_mean_motion": 15.32375133,
        "meta_eccentricity": 0.00070081,
        "meta_inclination": 42.0184,
        "meta_ra_of_asc_node": 92.3831,
        "meta_arg_of_pericenter": 7.6662,
        "meta_mean_anomaly": 352.4282,
        "meta_ephemeris_type": 0,
        "meta_classification_type": "U",
        "meta_norad_cat_id": 66555,
        "meta_element_set_no": 999,
        "meta_rev_at_epoch": 246,
        "meta_bstar": 0.0011819859,
        "meta_mean_motion_dot": 0.00037718,
        "meta_mean_motion_ddot": 0,
        "tle_line1": "1 66555U 25267B   25340.59120075  .00037718  00000+0  11820-2 0  9991",
        "tle_line2": "2 66555  42.0184  92.3831 0007008   7.6662 352.4282 15.32375133  2467"
      },
      "geometry": {
        "type": "Point",
        "coordinates": [
          -153.97630550606235,
          37.790867176990716
        ]
      }
    },
    {
      "type": "Feature",
      "properties": {
        "norad_id": 66557,
        "name": "STARLINK-35699",
        "group": "last-30-days",
        "lat": 39.42111823681084,
        "lon": -91.69183558162898,
        "alt_km": 391.806676400829,
        "timestamp": "2025-12-07T18:50:15.514512+00:00",
        "meta_object_name": "STARLINK-35699",
        "meta_object_id": "2025-268A",
        "meta_epoch": "2025-12-07T06:00:04.999968",
        "meta_mean_motion": 15.59236222,
        "meta_eccentricity": 0.00017894,
        "meta_inclination": 42.9999,
        "meta_ra_of_asc_node": 153.3756,
        "meta_arg_of_pericenter": 270.6458,
        "meta_mean_anomaly": 77.1424,
        "meta_ephemeris_type": 0,
        "meta_classification_type": "U",
        "meta_norad_cat_id": 66557,
        "meta_element_set_no": 999,
        "meta_rev_at_epoch": 378,
        "meta_bstar": -0.028661304,
        "meta_mean_motion_dot": -0.02025772,
        "meta_mean_motion_ddot": 0,
        "tle_line1": "1 66557U 25268A   25341.25005787 -.02025772  00000+0 -28661-1 0  9991",
        "tle_line2": "2 66557  42.9999 153.3756 0001789 270.6458  77.1424 15.59236222  3780"
      },
      "geometry": {
        "type": "Point",
        "coordinates": [
          -91.69183558162898,
          39.42111823681084
        ]
      }
    }
  ]
}